{
  "norad_id": 66090,
  "name": "STARLINK-35570",
  "history": [
    {
      "epoch": "2026-03-28T12:48:22.862880Z",
      "apogee_km": 476.5159226036276,
      "perigee_km": 473.89602665128587,
      "latitude_deg": -3.641712022962369e-05,
      "longitude_deg": -1.9854630523728733,
      "height_km": 476.03361816380965,
      "semi_major_axis_km": 6853.342974627456,
      "eccentricity": 0.00019114,
      "inclination_deg": 53.1623,
      "raan_deg": 16.0625,
      "arg_perigee_deg": 86.9463,
      "mean_anomaly_deg": 273.1756,
      "mean_motion_rev_day": 15.30203046
    },
    {
      "epoch": "2026-03-29T01:20:48.188256Z",
      "apogee_km": 476.04684422952414,
      "perigee_km": 474.3184370161589,
      "latitude_deg": -1.8420300224472168e-05,
      "longitude_deg": 166.96711318167206,
      "height_km": 475.9063208239589,
      "semi_major_axis_km": 6853.319640622842,
      "eccentricity": 0.0001261,
      "inclination_deg": 53.1626,
      "raan_deg": 13.6356,
      "arg_perigee_deg": 78.335,
      "mean_anomaly_deg": 281.7792,
      "mean_motion_rev_day": 15.30210861
    }
  ]
}